ONEWEB-0309             
1 49095U 21075W   23316.40704876  .00000033  00000+0  52944-4 0  9996
2 49095  87.9232 194.2516 0001345 100.7939 259.3344 13.17647932108765
ONEWEB-0310             
1 49096U 21075X   23316.37936977  .00000416  00000+0  11202-2 0  9997
2 49096  87.9038 179.1542 0001303  85.0541 275.0736 13.12442957110868
ONEWEB-0311             
1 49097U 21075Y   23316.56524756  .00000030  00000+0  44104-4 0  9998
2 49097  87.9233 194.2199 0002069  85.0335 275.1033 13.17650398108833
ONEWEB-0312             
1 49098U 21075Z   23316.42603504  .00000013  00000+0  12456-5 0  9990
2 49098  87.9248 194.2722 0001708  95.3516 264.7810 13.17647881108791
ONEWEB-0313             
1 49099U 21075AA  23316.40494480  .00000006  00000+0 -16860-4 0  9995
2 49099  87.9232 194.2869 0001754  89.7965 270.3367 13.17649400108781
ONEWEB-0314             
1 49100U 21075AB  23316.39861678  .00000123  00000+0  28436-3 0  9993
2 49100  87.9235 194.2511 0001835  96.2356 263.8985 13.17647759108753
ONEWEB-0315             
1 49101U 21075AC  23316.58159125 -.00000315  00000+0 -91231-3 0  9990
2 49101  87.9029 179.1218 0001755  71.8922 288.2397 13.12441103110874
ONEWEB-0316             
1 49102U 21075AD  23316.53734337  .00000019  00000+0  14549-4 0  9997
2 49102  87.9157 163.9867 0001909  84.0747 276.0602 13.18685972112315
